TISAT 1                 
1 36799U 10035E   26068.75703562  .00024554  00000+0  91005-3 0  9997
2 36799  98.0645   6.8512 0001343 159.3030 200.8262 15.27628633852505
STARLINK-35446          
1 66432U 25259L   26068.94844082  .00023204  00000+0  84948-3 0  9991
2 66432  43.0062 272.6467 0002019 282.9633  77.0994 15.27602924 19539
